SENTINEL-6              
1 46984U 20086A   24204.28775571 -.00000060  00000+0  33581-5 0  9992
2 46984  66.0413 138.3672 0007890 270.1178  89.8933 12.80929923171322
